[
    {
        "Altitude(m)": 554979.4890623231,
        "Argument of Periapsis(deg)": 0.033114955553567506,
        "Eccentricity": 0.0,
        "Inclination(deg)": 53.0,
        "Latitude(deg)": -4.794121472631353,
        "Longitude(deg)": -172.59137399765945,
        "Mean Anomaly(deg)": -5.905535662112014,
        "RAAN(deg)": 294.9507168426401,
        "Satellite Name": "Starlink Shell 1 1316",
        "Satellite Number": 1316,
        "Semi-Major Axis(m)": 6931778.249405717,
        "Time(s)": 950
    },
    {
        "Altitude(m)": 554889.3657147394,
        "Argument of Periapsis(deg)": 0.03346353403307874,
        "Eccentricity": 0.0,
        "Inclination(deg)": 53.0,
        "Latitude(deg)": -4.291201613829675,
        "Longitude(deg)": -172.25371286466944,
        "Mean Anomaly(deg)": -5.278704458555369,
        "RAAN(deg)": 294.95019807256267,
        "Satellite Name": "Starlink Shell 1 1316",
        "Satellite Number": 1316,
        "Semi-Major Axis(m)": 6931778.249405717,
        "Time(s)": 960
    },
    {
        "Altitude(m)": 554801.9231903175,
        "Argument of Periapsis(deg)": 0.03381211251258998,
        "Eccentricity": 0.0,
        "Inclination(deg)": 53.0,
        "Latitude(deg)": -3.788076061254664,
        "Longitude(deg)": -171.91653856738742,
        "Mean Anomaly(deg)": -4.651873254998622,
        "RAAN(deg)": 294.94967930248515,
        "Satellite Name": "Starlink Shell 1 1316",
        "Satellite Number": 1316,
        "Semi-Major Axis(m)": 6931778.249405717,
        "Time(s)": 970
    },
    {
        "Altitude(m)": 554717.180253346,
        "Argument of Periapsis(deg)": 0.034160690992101214,
        "Eccentricity": 0.0,
        "Inclination(deg)": 53.0,
        "Latitude(deg)": -3.2847680548062153,
        "Longitude(deg)": -171.57979281535714,
        "Mean Anomaly(deg)": -4.025042051441927,
        "RAAN(deg)": 294.9491605324077,
        "Satellite Name": "Starlink Shell 1 1316",
        "Satellite Number": 1316,
        "Semi-Major Axis(m)": 6931778.249405717,
        "Time(s)": 980
    },
    {
        "Altitude(m)": 554635.1543412342,
        "Argument of Periapsis(deg)": 0.034509269471612446,
        "Eccentricity": 0.0,
        "Inclination(deg)": 53.0,
        "Latitude(deg)": -2.7813007496264213,
        "Longitude(deg)": -171.24341699823626,
        "Mean Anomaly(deg)": -3.398210847885181,
        "RAAN(deg)": 294.9486417623302,
        "Satellite Name": "Starlink Shell 1 1316",
        "Satellite Number": 1316,
        "Semi-Major Axis(m)": 6931778.249405717,
        "Time(s)": 990
    }
]